NESS                    
1 58020U 23155E   26068.76452457  .00019469  00000+0  74047-3 0  9996
2 58020  97.5941 152.6141 0006891 179.8776 180.2465 15.26794015133307
STARLINK-33553          
1 62108U 24220W   26068.44302378  .00035699  00000+0  13005-2 0  9992
2 62108  43.0012 206.9212 0001412 248.9109 111.1592 15.27581447 73152
